STARLINK-31409          
1 59299U 24056D   26068.49077642  .00000430  00000+0  25140-4 0  9994
2 59299  43.0002 224.9352 0001027 252.2132 107.8607 15.27577397111329
FLOCK 4G-26             
1 62633U 25009AA  26068.80489479  .00011283  00000+0  42469-3 0  9999
2 62633  97.4054 151.3913 0001988 299.1273  60.9767 15.27281631 63733
